{"type":"FeatureCollection","name":"province","crs":{"type":"name","properties":{"name":"urn:ogc:def:crs:OGC:1.3:CRS84"}},"features":[{"type":"Feature","properties":{"PV_EN":"Chiang Mai","PV_TN":"\u0e40\u0e0a\u0e35\u0e22\u0e07\u0e43\u0e2b\u0e21\u0e48"},"geometry":{"type":"Polygon","coordinates":[[[99.51273101700008,20.147086941000058],[99.52018156000008,20.13798138200008],[99.53968528600006,20.133025077000074],[99.54410816800004,20.12965676800007],[99.55724972700006,20.129570533000052],[99.56219339800003,20.124826623000047],[99.57052246300003,20.12246851900005],[99.57301877400005,20.11884819000005],[99.57150478600005,20.110266414000023],[99.55946402600006,20.099653510000056],[99.5527931810001,20.104043570000048],[99.54346354000006,20.101946764000044],[99.52972062000003,20.094090818000037],[99.51893674700005,20.09234946900005],[99.50895874800005,20.08814047300007],[99.49275364000005,20.078034085000073],[99.49109612100006,20.070764420000046],[99.49683144600004,20.054641042000075],[99.49611031600006,20.049017913000057],[99.49249587300005,20.044087363000074],[99.48435864300006,20.039465114000055],[99.47989898100008,20.038404191000037],[99.47680154900007,20.03959407700006],[99.47247979400004,20.034472978000053],[99.46759464800006,20.033340585000072],[99.46922455300006,20.030408465000047],[99.46816578700003,20.022992347000073],[99.47195944400005,20.021312792000057],[99.47428089900006,20.016320729000032],[99.47876751000007,20.01406536000007],[99.47840086200006,20.012362980000038],[99.46724480600005,20.006957326000077],[99.46513394600004,20.00007483000007],[99.46069781000006,19.997023050000053],[99.45684850300007,19.98525620500004],[99.44860370400005,19.97559237300004],[99.43802886700007,19.97234079800006],[99.43391440900008,19.96368261000003],[99.42171551400008,19.962745102000042],[99.42176801200009,19.95642616400005],[99.41727258100008,19.947985336000045],[99.41764954300004,19.943472940000056],[99.41543053000004,19.93974603500004],[99.41468673000008,19.932563686000044],[99.41743597900006,19.923104973000015],[99.42061927900005,19.920513004000043],[99.42006072700008,19.91840427900007],[99.41275767100007,19.91552288800005],[99.40287108300004,19.91478648200006],[99.39624117600005,19.906989211000056],[99.39538806700006,19.903216054000044],[99.38395799400007,19.89150247300006],[99.38534888800007,19.87978569300003],[99.38814601700005,19.87687433100007],[99.38657057100005,19.869022627000042],[99.38934385000005,19.862783539000084],[99.40331799900008,19.849529548000074],[99.40788057300006,19.84758306200007],[99.41044426300004,19.844563447000038],[99.41417038000009,19.84492082000003],[99.41306235900004,19.839076655000046],[99.41072219900009,19.837051062000057],[99.40869916700007,19.831579469000076],[99.41472512500007,19.82822425100006],[99.42021524400008,19.822506997000062],[99.42013672900003,19.814428371000073],[99.41090502300005,19.812739650000026],[99.40590491200005,19.814714310000056],[99.39134587600006,19.813246707000072],[99.39094340200006,19.807771327000072],[99.38663191000006,19.80705325200006],[99.38270299400006,19.800354185000067],[99.37798266600004,19.79621635900003],[99.37971192700007,19.789920849000055],[99.37677801900008,19.782311317000048],[99.36781632200007,19.77951049600006],[99.36221334900006,19.775886881000083],[99.36607014900005,19.76706363800002],[99.36458440700007,19.759100728000078],[99.36529495600007,19.752561147000055],[99.35982113400007,19.749154053000037],[99.36154206700007,19.737725780000062],[99.36047679200006,19.727118679000057],[99.35578928700005,19.724710686000034],[99.34959742700005,19.724643795000077],[99.34691596700009,19.72057338100006],[99.34634045600006,19.713116821000025],[99.34494528200008,19.711639722000026],[99.33569586200008,19.713417201000023],[99.32669910700008,19.712844157000067],[99.31339589800007,19.70773493700006],[99.31396149600005,19.702652952000054],[99.31138166000005,19.70360180300002],[99.30869837000006,19.698511884000023],[99.30480974200003,19.697348249000072],[99.30180516700005,19.689936276000022],[99.29688973400005,19.685749077000025],[99.29483871000008,19.679702229000046],[99.28892509900004,19.677886376000064],[99.28614853900007,19.67435963400004],[99.26533438000007,19.663980994000042],[99.26366411900005,19.653622558000055],[99.25836950800004,19.650352077000036],[99.26081825000006,19.636110758000026],[99.25870845100008,19.630079343000034],[99.26629552100007,19.624591853000023],[99.26649948000006,19.612355433000058],[99.28038175900008,19.602398159000078],[99.28450039800003,19.60358233100004],[99.29069307100008,19.596399314000053],[99.29347775600007,19.59096806900004],[99.29094719400007,19.588238469000036],[99.28939951900009,19.580896109000037],[99.29483556800007,19.576355231000036],[99.2954787070001,19.56794294900004],[99.2976210450001,19.563172386000076],[99.30693313300009,19.55503700400004],[99.31684143800004,19.554312742000032],[99.31718191600004,19.549264952000044],[99.32009079000005,19.543611662000046],[99.32589527100004,19.539353869000028],[99.32287891500005,19.53515705000007],[99.31742608600007,19.534884301000034],[99.31794182300007,19.532965277000073],[99.31345287500005,19.52769546500002],[99.31146487800004,19.528279533000042],[99.30877904400006,19.52654902100005],[99.30903049800008,19.52094108100005],[99.30005405300005,19.514551155000053],[99.29857483000006,19.50569949900006],[99.29490120200006,19.498629462000057],[99.29476492600008,19.493760936000054],[99.29939662300006,19.48648522900004],[99.30795356200008,19.48825119500003],[99.3067699090001,19.48243103700003],[99.30789075400008,19.478337575000065],[99.30615819400003,19.477000756000052],[99.30600409900006,19.473273199000058],[99.31068819300003,19.47124542900008],[99.31735835500007,19.45461231400002],[99.30914077200003,19.42928855500003],[99.31289283700005,19.424670907000063],[99.31447207900004,19.418061999000024],[99.31801801900008,19.414800180000043],[99.32036905200005,19.40636887100004],[99.32315905000007,19.405729069000078],[99.32502896500006,19.401909780000036],[99.32978461200008,19.398412858000025],[99.32377101000009,19.396107884000063],[99.33180762100005,19.377431568000077],[99.33008987100004,19.36468091400008],[99.33297234700007,19.362179131000065],[99.31949342700005,19.35662956100003],[99.31641804100008,19.35049863800003],[99.31947372400003,19.341614204000052],[99.32311223200008,19.338496714000033],[99.32446873600009,19.331180901000042],[99.32902739500008,19.32599212000002],[99.32732057300008,19.321309366000037],[99.33306291500008,19.302942002000073],[99.3382785300001,19.29807035300007],[99.33641121400007,19.291097013000066],[99.33945592900007,19.286586288000027],[99.33720482700005,19.28415716300003],[99.34270833600004,19.26818478100006],[99.34216483900008,19.266240517000032],[99.33584407600006,19.261790057000045],[99.33721247100004,19.254740683000023],[99.33189441100006,19.249124665000064],[99.32952428900006,19.249318732000063],[99.32801535500005,19.24594825400004],[99.32211339800006,19.243419241000023],[99.32245746200005,19.23719415600005],[99.31823065500004,19.228900730000074],[99.31091281800008,19.224665731000073],[99.30986294100006,19.217805876000057],[99.31123316500003,19.216371128000045],[99.31108279300008,19.21260957000004],[99.31487974400005,19.209159841000027],[99.30969320400004,19.205589867000075],[99.30728689300008,19.194938814000068],[99.30375649800004,19.193552933000035],[99.30663303000006,19.18857305000006],[99.30501923900005,19.182577151000032],[99.30606116100006,19.176683013000066],[99.31017187700007,19.17292332200003],[99.31646383800008,19.170357252000034],[99.31957700100008,19.16488421500003],[99.31830521200004,19.157265605000077],[99.32344290200007,19.142559489000067],[99.32410711200004,19.135427767000067],[99.32046197300008,19.13157967700005],[99.32086929500008,19.123698295000057],[99.32369575400008,19.123171430000067],[99.32503261600006,19.11971676000007],[99.32959330800009,19.117849189000026],[99.33103510000007,19.111366733000064],[99.33602830500008,19.10696321500006],[99.34279718600004,19.094734327000022],[99.34448378300004,19.086590664000028],[99.34625574100005,19.085579664000015],[99.35166743900005,19.08719390600004],[99.36057811800003,19.083057857000032],[99.36517345100003,19.07866337300004],[99.36379843500004,19.072547713000063],[99.36567754700008,19.069051006000052],[99.37129948000006,19.067062825000047],[99.37619212500005,19.06812159400004],[99.38353891000008,19.06401926500007],[99.38247429600005,19.059834860000024],[99.38415135800005,19.05524259100002],[99.38189189000008,19.05167521100003],[99.38319545300004,19.04301910400005],[99.38801972100003,19.032304106000026],[99.38991814700006,19.020689164000036],[99.39502392900005,19.018226897000027],[99.39668003700007,19.006612395000047],[99.40156588600007,19.00007224000007],[99.39496326600005,18.998565887000037],[99.39002995800007,18.993750303000073],[99.37669612300004,18.98758719500006],[99.37329694500005,18.981532131000048],[99.37476913100005,18.977938982000065],[99.37337557800004,18.973384599000042],[99.37751286200006,18.96847671600005],[99.37503925400006,18.95987343800004],[99.38417931600009,18.951773986000035],[99.38662762500007,18.94409146200007],[99.38484662300004,18.934179786000072],[99.37790622100005,18.921931130000075],[99.37803588100007,18.919146147000053],[99.38115932300008,18.916654415000036],[99.38350963600004,18.90935169000005],[99.38308210400004,18.905867434000072],[99.38515358100005,18.90414939000004],[99.38402907200003,18.899002522000043],[99.38738383500004,18.896398368000064],[99.38622612600005,18.88920003200008],[99.39135256900005,18.884284129000037],[99.38657426500004,18.879282741000054],[99.38600989200006,18.87744249000008],[99.38824016000007,18.87501236700007],[99.38575387500003,18.867727529000035],[99.38207933400008,18.86670820300003],[99.37309188200004,18.857292218000058],[99.35316484700007,18.84734892400007],[99.35046267400008,18.836011682000052],[99.35270448500006,18.829739786000065],[99.35499948300009,18.828253242000073],[99.35252041100006,18.82339564200004],[99.35661110500007,18.817219606000037],[99.35874812800006,18.802026440000077],[99.36399014700004,18.798455417000067],[99.36616744900005,18.78721044600007],[99.37114906500005,18.780915979000042],[99.36695566400005,18.775443981000024],[99.36653187400003,18.76978490300007],[99.37101553400004,18.759997177000063],[99.37142985400004,18.753687977000023],[99.36544296800008,18.748510940000074],[99.36203605600008,18.747988850000066],[99.35389406100006,18.738368982000054],[99.34834172200004,18.735834117000024],[99.34842912800008,18.724385277000067],[99.34517055200007,18.72190929100003],[99.34411377100008,18.717931193000027],[99.34036906100005,18.71594292600002],[99.34208073200007,18.710735134000057],[99.34097826100003,18.706365078000033],[99.33436324800005,18.702986661000065],[99.33317098500004,18.70076659600005],[99.33602169300008,18.693301873000053],[99.32744553900005,18.685391939000063],[99.33124620400008,18.68060761200007],[99.33413347800007,18.67256780500003],[99.33317228800007,18.668683214000055],[99.34371347000007,18.661438417000053],[99.34867768400005,18.655807693000035],[99.34217105800008,18.649711153000062],[99.33311611000005,18.65052614400003],[99.33100194300005,18.647266058000067],[99.32737584300008,18.639174419000028],[99.32879283300008,18.63280697800008],[99.32709003700006,18.629162005000065],[99.33089297300006,18.626485772000027],[99.32734739100005,18.61935989900007],[99.33630001000006,18.615836262000073],[99.34794925900007,18.617039734000063],[99.35482529000006,18.61292593400003],[99.35945828800004,18.606980348000032],[99.35358410500004,18.595146098000047],[99.34912007600008,18.59325418900005],[99.35143188400009,18.589063055000054],[99.35064497500008,18.583158206000064],[99.35353058500004,18.57982458400005],[99.34710197000004,18.57871355700007],[99.34323206700009,18.57509753800003],[99.33760394700005,18.577007933000054],[99.33221066100003,18.575756710000068],[99.32792884500009,18.56592407700004],[99.32927172700005,18.556732341000046],[99.32699908700005,18.54329675000002],[99.32301626900005,18.536610937000038],[99.31932437500008,18.536224057000027],[99.31711564700004,18.532141451000026],[99.29628416000008,18.537163135000068],[99.28847912700009,18.547154358000054],[99.27574543900005,18.556005819000063],[99.27243396900008,18.562660373000032],[99.26501433400006,18.56802598200005],[99.26378599800006,18.571567228000045],[99.25187714300006,18.573837368000053],[99.24538307400007,18.582284075000075],[99.23721627500004,18.582757726000068],[99.22901193500007,18.589309158000052],[99.21905576100005,18.59165054800008],[99.21949057200004,18.595808674000065],[99.22346719900008,18.60314740700005],[99.22319531900007,18.60727359100002],[99.22631134900007,18.61135167300005],[99.23007183600005,18.61233677900003],[99.23538155300008,18.617116977000027],[99.23266403900004,18.62292276100004],[99.23331666100006,18.62703650700007],[99.23175025200004,18.62937024800004],[99.23369795200006,18.636795947000053],[99.23131387200004,18.64098461600003],[99.23445276200005,18.650976745000033],[99.23105071100008,18.654080986000057],[99.22399763100003,18.65283889400007],[99.21794947000006,18.654433301000036],[99.21308924900006,18.66042541300004],[99.20662961300008,18.659972820000068],[99.20545405400009,18.66852291400005],[99.20041953000003,18.67039017800004],[99.18843116200009,18.679050809000046],[99.18863010800004,18.684227110000048],[99.18677157100007,18.686857889000066],[99.19085844800009,18.699335205000068],[99.18903025700007,18.707256565000026],[99.18004475700008,18.708456160000026],[99.17748139700007,18.705804834000052],[99.16593041200008,18.706842351000034],[99.15558430000004,18.70999869200006],[99.14609668800006,18.70440052800007],[99.13563840600006,18.700607916000028],[99.12700138000008,18.689436237000056],[99.12622994900005,18.683451346000027],[99.12225080100006,18.683910399000073],[99.11580933600004,18.68109462900003],[99.11466018100003,18.68212566600005],[99.11353070400008,18.67934829700005],[99.10534693000005,18.67970103100004],[99.10229786100007,18.677857835000058],[99.09949424100006,18.66942687600005],[99.08071752900008,18.672149550000036],[99.07871754200005,18.670209485000044],[99.07652297100003,18.67236595900005],[99.07380066300004,18.666540914000052],[99.06973685900005,18.667347981000034],[99.06798997700008,18.663571857000015],[99.06179132500006,18.667993593000062],[99.04533171800006,18.66820164200004],[99.01208562100004,18.674224919000032],[99.00432118300006,18.66243176100005],[99.00482502400007,18.644825643000043],[98.99438248900003,18.63840069500003],[98.99118792900003,18.639932522000038],[98.98699435500004,18.63609675400005],[98.98367081800006,18.63839781000007],[98.98340928900006,18.634461713000068],[98.97888537500006,18.635554864000028],[98.97694683400005,18.62911501800005],[98.97499891700005,18.62903003700006],[98.96801622500004,18.61993329300003],[98.96813747500005,18.616289839000046],[98.96548555500004,18.61469302100005],[98.96508478000004,18.610164869000073],[98.96980877100003,18.60338373200005],[98.96521080700006,18.597864054000073],[98.95713455200007,18.592432753000026],[98.95627573700006,18.588312312000028],[98.95341758500007,18.585754974000054],[98.95338116800008,18.57916505400004],[98.94804166200004,18.576357324000075],[98.94843245200008,18.57194909100002],[98.94342263700008,18.563580614000042],[98.93867077500005,18.563980196000045],[98.93590372700004,18.556364655000042],[98.93276326200004,18.554675691000057],[98.93374666600005,18.550220238000065],[98.93216756900006,18.545351510000042],[98.93515651800004,18.54317323800007],[98.93429550000008,18.542181004000042],[98.92932489100008,18.540896923000048],[98.92232431900004,18.53616157500005],[98.91496324600007,18.536708603000026],[98.90455438100008,18.52809479500007],[98.89340703800008,18.523191289000067],[98.87889026700003,18.51139679100004],[98.87676897200004,18.51185410800002],[98.87304557600004,18.516868953000024],[98.86492770700005,18.514940462000027],[98.86191637800005,18.51057398800003],[98.86226638100004,18.50531290400005],[98.86060603100005,18.502155109000057],[98.85726089200006,18.500191334000025],[98.85048628200008,18.50159831600007],[98.84719875400003,18.500242226000065],[98.84437811500004,18.49693421900003],[98.84451154600005,18.493413962000034],[98.84196928200004,18.488866788000053],[98.83628167000006,18.484379022000038],[98.82563460400009,18.47949794500005],[98.82249498300007,18.47566849100002],[98.81538470600003,18.471362914000057],[98.81506845400008,18.462647537000066],[98.8045972020001,18.462876547000068],[98.79807868800005,18.452970645000047],[98.78793874400009,18.45380013100004],[98.77855452000006,18.450528883000057],[98.76444228000008,18.43467472900005],[98.76109724900004,18.434375678000038],[98.75486384700008,18.43710856100006],[98.74671681700005,18.432109920000073],[98.74273099600003,18.43135100200004],[98.73792014400004,18.438239422000038],[98.72572562400006,18.446301180000034],[98.72250851700005,18.44438719100003],[98.72104404200007,18.435679036000064],[98.71752901500008,18.43350919800002],[98.71357369200007,18.435661133000057],[98.71000502600003,18.44241625500007],[98.70596728500004,18.439608215000078],[98.69991006600009,18.425995184000044],[98.69354271100008,18.419291129000044],[98.69276887900008,18.416155896000078],[98.69750143300007,18.410882938000043],[98.70087708000005,18.41128031200003],[98.70677896100005,18.416427712000026],[98.70911560800005,18.41609124300004],[98.70950106000004,18.41367976900006],[98.69802895800008,18.395625068000072],[98.68974699400007,18.39166431100005],[98.68610004200008,18.37662216800004],[98.68109296500006,18.36886020100008],[98.69636384800003,18.351165730000044],[98.70410673000003,18.33454415400007],[98.70226165800007,18.331525896000073],[98.69930160400008,18.33061403900007],[98.69216730400007,18.334451822000062],[98.68875310300007,18.33462817600002],[98.67878000100006,18.328213700000052],[98.67177028500004,18.327127349000023],[98.67072490400005,18.324749622000077],[98.67528871500008,18.31698003400004],[98.67326606300009,18.311094943000057],[98.68090801600005,18.309415453000046],[98.69154105700005,18.298132826000028],[98.69957945500005,18.29486812700003],[98.70579293700007,18.29018353200007],[98.72076031000006,18.286241559000075],[98.72827790800005,18.273630382000025],[98.73618782700004,18.26615319700005],[98.74854164600004,18.262281083000058],[98.75099977400004,18.26294296600003],[98.76337254700007,18.256242036000053],[98.76999234100003,18.25607950500006],[98.77569090800006,18.249743591000023],[98.77740665000005,18.237657892000072],[98.77292807100008,18.229742919000046],[98.77553038500008,18.225327340000035],[98.78517830900006,18.220823712000026],[98.78359637900007,18.218253896000018],[98.78525900700004,18.21695875400007],[98.78284966700005,18.206913237000034],[98.78438885900005,18.20064795800005],[98.77997793000009,18.196299991000043],[98.78169928000005,18.193027786000073],[98.78183381600007,18.187500938000024],[98.78387227300004,18.186019809000072],[98.78274764000008,18.179289423000057],[98.79162106400008,18.167780875000066],[98.79140538800004,18.163533695000066],[98.79305214400007,18.160420594000076],[98.80056700700004,18.160334760000072],[98.80482869500008,18.156120426000033],[98.80386113800006,18.152097320000056],[98.80612157100006,18.145162577000065],[98.80427412600005,18.14311349000008],[98.80713764200004,18.137555450000036],[98.80523684500008,18.13038714000004],[98.80773868800009,18.124969942000067],[98.80595184500004,18.12144426300006],[98.81010545600009,18.11345383800005],[98.80767653400005,18.10721711100006],[98.80177231100004,18.104351569000066],[98.80201123000006,18.097803404000047],[98.80045033700009,18.09591726300005],[98.80195215500004,18.091755437000074],[98.79761588200006,18.087375157000057],[98.79984086700006,18.08511897300002],[98.80475157300003,18.08550136300005],[98.81369779900007,18.07971084900004],[98.80668071200006,18.072278781000026],[98.80837343200005,18.068210858000043],[98.80729386800004,18.06380574600007],[98.79754810300005,18.05761114400007],[98.79757939100006,18.048591816000055],[98.79110871400007,18.03661899100007],[98.79408673700006,18.03044770100007],[98.78627240100008,18.02467487000007],[98.78479961500005,18.017998238000075],[98.77880571600008,18.012784124000067],[98.77901876200008,18.005756856000062],[98.77767062400005,18.002890076000025],[98.78558025700005,18.00548855200003],[98.79048073500007,18.00238576100003],[98.80433657700007,18.00811491300004],[98.80881268600007,18.008492225000055],[98.81146196800006,18.003686277000043],[98.82785275600008,17.995950909000044],[98.83109808200004,17.990011990000028],[98.83409358100005,17.98870284300006],[98.83458795800004,17.98621311900007],[98.83074086600004,17.981087147000036],[98.83263341100007,17.977363735000036],[98.83039726900006,17.974932655000032],[98.83482720400008,17.972710708000022],[98.83582632200006,17.96819222500005],[98.84177775600006,17.964968105000025],[98.83923587700008,17.960587911000058],[98.84272443500004,17.941729301000066],[98.85045553800006,17.930302582000028],[98.85049004600006,17.92750851900007],[98.84833707100007,17.924874329000033],[98.85095694600007,17.92316238900002],[98.85100177000004,17.91719235400006],[98.85739986800009,17.908587766000036],[98.85464024800007,17.90362911300002],[98.85528021100004,17.89740077300007],[98.86086185900007,17.896523564000063],[98.86176327600003,17.88569353200006],[98.86671019800008,17.879773207000035],[98.86556479900008,17.871840910000056],[98.86749301200007,17.87075870800004],[98.86735958200006,17.864132071000025],[98.87086582200004,17.85603455200004],[98.87055914100006,17.84981679700007],[98.86490239200003,17.850978967000056],[98.86020070600006,17.85655710100008],[98.85277250300004,17.847617937000052],[98.85463601600009,17.827901213000075],[98.85153612700003,17.822324202000054],[98.85268833800006,17.819406669000045],[98.85689712500005,17.816765944000053],[98.85685714300007,17.815133279000065],[98.83669716100007,17.805043728000047],[98.83405350300006,17.805829009000036],[98.83033738000006,17.800671438000055],[98.82185842400008,17.797246100000052],[98.81498198700007,17.797290563000043],[98.80885644300008,17.799655104000067],[98.80330793800005,17.798116398000047],[98.80152382100005,17.79591138700005],[98.79928625300005,17.79635539600002],[98.79783631900006,17.79803738100003],[98.79832964900004,17.80273580800002],[98.79321535100007,17.810266564000077],[98.79285601500004,17.81297104200007],[98.79675271800005,17.812614709000055],[98.79774507500008,17.813856312000045],[98.79303742400003,17.819823763000052],[98.79482284800008,17.823834345000023],[98.78840396400005,17.82463082200007],[98.78708217100007,17.82664955300004],[98.79002137200007,17.830536016000053],[98.78478527100003,17.832686065000072],[98.78091242000005,17.830526014000046],[98.77793102900006,17.83086160200003],[98.77790478900006,17.82728561000005],[98.76905907200008,17.816050335000057],[98.76766228100009,17.808917085000072],[98.76286246400008,17.80141026600006],[98.75102096700004,17.80123059800008],[98.74336914700007,17.805430519000026],[98.73879770000008,17.802438285000054],[98.73747794900004,17.79936785600006],[98.72728891300005,17.793825584000047],[98.72602951300007,17.793691633000034],[98.72459893600006,17.79712661700006],[98.71574780400005,17.798327414000024],[98.70767845000006,17.796858027000038],[98.69686879300008,17.79193918900006],[98.68518019400005,17.791079006000075],[98.68348959600007,17.799919558000052],[98.67745918100007,17.808581240000024],[98.67594042800005,17.815848119000062],[98.67186497900008,17.81978333000006],[98.67292730900004,17.83070612600006],[98.67194391000004,17.83353584900004],[98.66972919800008,17.833961455000065],[98.66063360800007,17.829182476000028],[98.65896915300006,17.82669958700006],[98.65500728400008,17.827075647000072],[98.64779426700005,17.816544005000022],[98.63915614900009,17.814494548000024],[98.63572210300003,17.805263067000052],[98.63191355000005,17.801112826000068],[98.63385732200004,17.795593828000047],[98.63157060900005,17.78516452000002],[98.62403980600004,17.777336243000036],[98.62202854000009,17.78041796200006],[98.61894681600006,17.779119455000057],[98.61468930900008,17.77992009000008],[98.60795805800007,17.786584065000053],[98.60446340600005,17.79459999600005],[98.59855841700005,17.80253183300005],[98.59068015500009,17.80582365700008],[98.58980199200005,17.801457277000054],[98.58196155900004,17.801374022000058],[98.57999208400008,17.806082328000056],[98.57358855400008,17.806409682000037],[98.57145137700007,17.809856640000078],[98.56960828100006,17.804380830000067],[98.56372277200008,17.79734929400007],[98.56055642500007,17.796233847000053],[98.54880293600007,17.805212955000062],[98.54447386500004,17.811548025000032],[98.54018992100004,17.81384736100006],[98.53121653700003,17.81483385600006],[98.52235940200006,17.823734622000078],[98.51886494800004,17.824925920000055],[98.51417148100006,17.82260156700005],[98.51530974900004,17.816715767000062],[98.50934043400008,17.812619966000057],[98.50291951800006,17.815597771000057],[98.49422299700007,17.815042193000068],[98.49210501600004,17.811764749000076],[98.49314151700008,17.803300575000037],[98.49665936100007,17.797247041000052],[98.49639725000009,17.783569877000048],[98.49447600300005,17.780792343000034],[98.49873874900004,17.77427292100003],[98.50213425700008,17.77198238700004],[98.50517256700005,17.755899105000022],[98.51744562500005,17.737829825000063],[98.51710162200004,17.731237546000045],[98.51996067000005,17.725685785000056],[98.52096353900004,17.71706986900006],[98.52634075700007,17.70772787700002],[98.52569943700007,17.702133645000057],[98.52232945300005,17.69639157100005],[98.52256062700008,17.678822038000074],[98.52468387200008,17.667851923000057],[98.52827350900009,17.661052136000023],[98.52806551000003,17.65652662500003],[98.53174675200007,17.647770092000037],[98.53252176100005,17.640842603000063],[98.53225461200003,17.637626434000026],[98.52911699900005,17.63521579100006],[98.53308083800005,17.62026832300006],[98.53146211200004,17.60523978700007],[98.52191905400008,17.57477994800007],[98.52437606400008,17.567418115000066],[98.53181631400008,17.560774247000044],[98.53400523500005,17.55656957900004],[98.53846119000008,17.554633276000065],[98.53882104000007,17.55101632000003],[98.53547677500006,17.54461917800006],[98.53640992200009,17.540655572000045],[98.52738842700008,17.53646848900007],[98.52675692900004,17.53020645500004],[98.52480024200008,17.528508122000062],[98.52436490500008,17.522480429000044],[98.52594407300006,17.517950095000064],[98.51936698500005,17.511672608000023],[98.52450806300004,17.49529753000007],[98.51815304000007,17.479007724000034],[98.52943312600007,17.45206717400003],[98.54704555700005,17.445879073000068],[98.54631280400008,17.433257906000055],[98.55308321300004,17.428163935000047],[98.55743096600008,17.420404642000054],[98.55445472100007,17.40862926500006],[98.55611546100005,17.39637609800007],[98.53749740800004,17.362183388000062],[98.54804316400003,17.353910812000038],[98.55490859300005,17.356580291000057],[98.56072596400008,17.353540217000045],[98.56185806500008,17.351320226000045],[98.5578217970001,17.34563595900005],[98.55579897000007,17.337386741000046],[98.55632545100008,17.33039620200003],[98.56064579600007,17.32233384300002],[98.56098043300007,17.31801277200003],[98.55625686200005,17.312782306000027],[98.55824161400005,17.30868634000006],[98.55761913000003,17.29378065100008],[98.56308308600006,17.292983625000033],[98.57392492900004,17.29985632000006],[98.57865334000007,17.29942678200007],[98.57918489700006,17.294547910000066],[98.57432949800005,17.284652271000027],[98.56657584900006,17.28549439500006],[98.56417546400007,17.282600073000026],[98.56065704000008,17.283411573000027],[98.55263013400008,17.28161992300005],[98.54408810500007,17.28300402500003],[98.53601923200006,17.275620948000036],[98.53244992500004,17.274350589000047],[98.52414623400006,17.277229238000068],[98.51897866600007,17.28120089300006],[98.50998661900007,17.279348740000042],[98.50259266200004,17.279706809000057],[98.49772565700005,17.272718814000026],[98.49261700500006,17.272628012000038],[98.49009001800005,17.270286152000043],[98.48860520400007,17.272566993000055],[98.48116487600004,17.273405489000023],[98.47812810700003,17.276747708000073],[98.4739977340001,17.275031948000045],[98.46074527500008,17.275682635000067],[98.45908745600008,17.27293258100008],[98.45561936000007,17.27264639300006],[98.45596619900006,17.270270077000074],[98.45398854700005,17.269246694000064],[98.44974318000004,17.27134684400005],[98.44516298900004,17.268586395000057],[98.44081136400007,17.268848888000036],[98.43908819000006,17.26566349400002],[98.43603889800005,17.26615549200005],[98.43536976700005,17.260845474000064],[98.43015194300006,17.257185781000032],[98.42640181000007,17.256575154000075],[98.42093745400007,17.252882888000045],[98.41269922800006,17.25224434400008],[98.41003399900006,17.247470752000027],[98.40633400700005,17.24808807100004],[98.40178959900004,17.245188921000025],[98.39693030700005,17.24687938000005],[98.39261222500005,17.242333360000035],[98.37686745400003,17.255698945000066],[98.37567562800007,17.261397663000025],[98.37071091700005,17.267021313000047],[98.35903693800003,17.272795269000024],[98.35811518300005,17.275023794000045],[98.36097882800004,17.288473707000037],[98.35603912500005,17.289353893000055],[98.35079293000007,17.294029275000074],[98.33833430400006,17.297058381000056],[98.33079868700008,17.301553912000035],[98.32657087600006,17.308037517000056],[98.32223074500007,17.310664474000074],[98.32102500300005,17.31870376700004],[98.31726482800009,17.32154723800005],[98.33196190800004,17.328988239000076],[98.33020944500004,17.34042433200005],[98.33416377000003,17.348796118000053],[98.32456216600008,17.35903759100006],[98.32321982300004,17.36270164700005],[98.31761024700006,17.36533770400007],[98.31686044300005,17.37264746200003],[98.31995626300005,17.375639666000037],[98.31918688500008,17.37950109400003],[98.30307192900005,17.39239794800005],[98.29976336000004,17.39978338500003],[98.29164302800007,17.40747372700002],[98.29751509500005,17.41226237700005],[98.30211017600004,17.41272818200002],[98.30585752900004,17.41065220000007],[98.31017548700004,17.413773091000053],[98.32282288200008,17.41671898300007],[98.32434949500004,17.42459346100003],[98.32754169400005,17.429332614000028],[98.31971334500008,17.435351777000047],[98.31977514400006,17.444241504000047],[98.32302749300004,17.449003530000027],[98.32495591800006,17.46058632700004],[98.32963245000008,17.47051527300005],[98.32738089000009,17.48903912000003],[98.32091622100006,17.500149303000054],[98.31690147000006,17.50313860500005],[98.31645075100005,17.51078595900003],[98.31289080300007,17.517062255000045],[98.31473502500006,17.526974909000046],[98.30677706200004,17.533092335000045],[98.30898204600004,17.535855662000074],[98.30595561200005,17.549582538000035],[98.29887489500004,17.553044212000028],[98.29915651400006,17.558062715000066],[98.30283315100007,17.56626572100004],[98.29827409700005,17.576158067000055],[98.28399614000006,17.575575894000053],[98.27094384200007,17.579571800000057],[98.26524274500008,17.578372316000074],[98.26147429600007,17.57349899200005],[98.25644817000006,17.57314687500008],[98.25260918000004,17.56975994700002],[98.25006372500008,17.565916895000043],[98.24935960700009,17.557928773000068],[98.24090379100005,17.555275393000045],[98.23864198800004,17.54974988500004],[98.23328060000007,17.549965333000046],[98.22661830900006,17.545133262000036],[98.21816953300004,17.547034317000058],[98.21239473200006,17.541413296000034],[98.20713806100008,17.539539466000065],[98.20188471800009,17.539891212000047],[98.19743096900004,17.542390407000028],[98.18947857900008,17.540556019000064],[98.18691171900008,17.537811406000053],[98.18262205600007,17.53881283300007],[98.17880308100007,17.537468412000067],[98.17222424900007,17.545751770000038],[98.16761859700006,17.54742150500005],[98.14929471400006,17.54116375100006],[98.14243210500007,17.542494428000055],[98.13671356000003,17.541204242000045],[98.13153453600006,17.547132156000025],[98.12978954500005,17.554766313000073],[98.12582969800008,17.558810417000075],[98.12689364800008,17.567751634000047],[98.11823504200004,17.572938442000062],[98.11574118000004,17.57646123600006],[98.11248598100008,17.577210383000025],[98.11295707000005,17.58175417100006],[98.10839721000008,17.582505298000058],[98.10657168700004,17.58838879800004],[98.10940657500004,17.59028604200006],[98.10993783900005,17.592933222000052],[98.10680456500006,17.59493572100007],[98.10663924200009,17.597774077000054],[98.10346836800005,17.600926449000045],[98.10779563300008,17.60529789700007],[98.10587039800004,17.607985941000038],[98.10725061700003,17.611622120000046],[98.0997179540001,17.614976081000073],[98.10232735500006,17.622392429000058],[98.09811265900004,17.62210885000007],[98.09333307100007,17.633372121000036],[98.08982501000008,17.63662548500002],[98.09487353000009,17.637876767000026],[98.09728944100004,17.642993222000026],[98.10178473000008,17.643105263000056],[98.10054000300005,17.645744356000026],[98.10460110300005,17.646163908000062],[98.10503777800005,17.648469473000034],[98.10774108300006,17.64927143100004],[98.10844353000005,17.65133642400002],[98.11242938000004,17.650730786000054],[98.11450863500005,17.654521453000026],[98.11859042400005,17.655400632000063],[98.1262250650001,17.660264379000072],[98.12655929400006,17.663409995000052],[98.1325474160001,17.665845118000046],[98.13386803100008,17.670124832000056],[98.13704635600004,17.671562292000033],[98.13874343800006,17.676754219000028],[98.14543935600005,17.683730338000032],[98.14429883100007,17.68988147600004],[98.15061580800005,17.70082578500006],[98.14933976100008,17.722483496000052],[98.15283518600006,17.72941388600003],[98.14989864100005,17.735150552000054],[98.14856593800005,17.74580180800007],[98.14008389900005,17.74884114200006],[98.13555847700007,17.759785532000027],[98.14070911600004,17.76149151300007],[98.14434854500007,17.769083583000054],[98.14487701000007,17.774930120000022],[98.14812011800007,17.77653607700006],[98.14218867300008,17.780448517000025],[98.13180571300006,17.79636049900006],[98.11463668200008,17.798136357000033],[98.1092088760001,17.794262682000067],[98.10412303800007,17.79735643000003],[98.08808903400006,17.809947863000048],[98.08536262300004,17.815603020000022],[98.07295380500005,17.830030004000033],[98.07243996300008,17.838547996000045],[98.06912872200007,17.84663352900003],[98.06910329100003,17.852998298000045],[98.06399658000004,17.85720582600004],[98.05813010400004,17.859411060000067],[98.05457879200009,17.868128901000034],[98.05791493300008,17.87495049800003],[98.05592029600007,17.881455954000046],[98.05748998100006,17.887013873000058],[98.05486490100009,17.889652610000045],[98.04694345100006,17.891549222000037],[98.04503326700006,17.89864126700007],[98.04937851400007,17.905508616000073],[98.05083003800007,17.920067578000044],[98.04926367200005,17.924558453000028],[98.05994123700005,17.933134075000055],[98.05506418900006,17.94005704600005],[98.04717344000007,17.945496491000025],[98.05219246200005,17.946851844000033],[98.05533543100006,17.952050278000062],[98.06191425000009,17.950156002000025],[98.06319010700008,17.952018282000036],[98.06668536800004,17.95213000600006],[98.06804723300007,17.95487949700004],[98.07294034800003,17.957717044000045],[98.07944905300008,17.95706453200006],[98.08987403700007,17.963474007000055],[98.09973284400007,17.962021968000045],[98.10661359500006,17.954530913000042],[98.11883024700006,17.94918549400006],[98.12140192300006,17.94989531600004],[98.12362061500005,17.948165554000074],[98.12190141400004,17.947281119000024],[98.12261975500007,17.946059736000052],[98.12707636400006,17.946468440000046],[98.12937735200006,17.944001261000032],[98.13338040500008,17.945803007000045],[98.13359048500007,17.94277512700007],[98.14014546400006,17.941441784000062],[98.14368840200007,17.935668656000075],[98.14644594000004,17.93919878900004],[98.14957064200007,17.940137743000037],[98.14862753600006,17.942866450000057],[98.15024715400006,17.953442234000025],[98.15324947700003,17.95324182700005],[98.15392667700007,17.955358518000022],[98.15225108600004,17.95821622400007],[98.15503841500004,17.95862604100006],[98.15271222200005,17.960529678000057],[98.16033217000006,17.962634725000047],[98.15833066900008,17.96471042300004],[98.16214502800005,17.967765921000023],[98.16207964000006,17.970931165000025],[98.16971764700008,17.969418513000054],[98.16769385700007,17.97298207900008],[98.17199938500005,17.975208012000053],[98.17971742100008,17.97255879200003],[98.18118031400007,17.976665934000042],[98.18434379800004,17.978536557000037],[98.18410938800008,17.98105828500007],[98.18821158700007,17.97846127300005],[98.19115082700006,17.981897804000024],[98.19269580400005,17.97990346500006],[98.19711482700006,17.97913550500004],[98.20045049700008,17.982536261000064],[98.20453348900008,17.98201077300007],[98.20551457600004,17.985301226000047],[98.20990330200004,17.981943473000058],[98.22465517600006,17.986657581000035],[98.22757179100007,17.99033526200003],[98.23328305800004,17.987469158000064],[98.24288866000006,17.99013132200002],[98.24615249900006,17.98867423100006],[98.24594356300008,17.995961462000025],[98.24155711800006,18.01052040400003],[98.23879101900008,18.013582473000042],[98.23432161700003,18.013955746000022],[98.23201702600005,18.012523137000073],[98.22998575800005,18.01327991000005],[98.22967106500005,18.01538902800007],[98.22533423100003,18.01547340400003],[98.22164194500004,18.019225170000027],[98.22087858400005,18.024721699000054],[98.22329982100007,18.029323845000018],[98.22814230700004,18.028789646000064],[98.23221244100006,18.03098624900003],[98.23409467900007,18.034630364000066],[98.23070369600003,18.03699954300004],[98.23753720400005,18.039603553000067],[98.23766621300007,18.042484915000045],[98.23542956000006,18.044302884000047],[98.23976801300007,18.05424368000007],[98.24435287400007,18.059148943000025],[98.25052238700005,18.062331744000062],[98.25272442100004,18.068652171000053],[98.24998071300007,18.07731911200006],[98.24711113200004,18.076239204000046],[98.24200085900009,18.078599578000027],[98.24364433200009,18.08119539600006],[98.24174308900007,18.08347453600004],[98.24215903500004,18.087911539000057],[98.23774985300008,18.086487644000048],[98.23410562800007,18.08907500700008],[98.23311055700003,18.08693019700007],[98.22886610700004,18.088651951000028],[98.23299663900008,18.091873487000047],[98.23088627600004,18.09823229400007],[98.22587819500006,18.095216194000045],[98.22585786000008,18.091908239000073],[98.21298004800008,18.087368825000055],[98.20603248400005,18.088533363000067],[98.19244018200004,18.097233499000023],[98.19012441900009,18.103291565000067],[98.19068065300009,18.11832041700006],[98.18713809600007,18.133146713000027],[98.18314808000008,18.14094186600005],[98.18141094600009,18.153350130000035],[98.17824609600007,18.155487624000045],[98.16945490200004,18.15725741300002],[98.15889981400005,18.15692572400007],[98.15647619000003,18.161461082000073],[98.15688948700006,18.166083427000046],[98.16227574300007,18.166152162000056],[98.16715375200005,18.16842036200006],[98.16787007000005,18.171695123000063],[98.16613623700005,18.173270340000045],[98.16722973700007,18.18261217700007],[98.17665401000005,18.191534632000067],[98.17042160900007,18.20169895500004],[98.16652157300007,18.204295082000037],[98.16785845200008,18.210832878000076],[98.17212817800004,18.218458832000064],[98.16932256700005,18.220596540000034],[98.15803927700006,18.221992224000072],[98.15502877300008,18.22440672100004],[98.14897722100005,18.225558237000033],[98.14258249400007,18.23762208500006],[98.13929433000004,18.24032314400006],[98.14269599500005,18.251066044000027],[98.14100302000008,18.255303870000038],[98.13752419400004,18.25840958700007],[98.13578784000003,18.267012313000063],[98.14006448900005,18.281419412000048],[98.15158344700006,18.285753562000025],[98.15733669200006,18.282647480000037],[98.16236275700004,18.283421948000072],[98.16658188100008,18.28163286200004],[98.17730621600003,18.283472150000023],[98.18214459100005,18.285904832000025],[98.18592999200007,18.284217392000073],[98.19204131000004,18.284477167000038],[98.20201159600003,18.29110751500002],[98.20228879400008,18.296629564000057],[98.20816807200003,18.306352582000052],[98.20723719900008,18.310197639000023],[98.20255436600007,18.313414752000025],[98.20257670800004,18.31660739800003],[98.20093629800004,18.317476061000036],[98.20185629500008,18.321849615000072],[98.19991652800007,18.322405216000053],[98.20093071100007,18.324427120000053],[98.19905179500006,18.32479769400004],[98.20047689400008,18.32923098700007],[98.19666919100008,18.333062763000044],[98.19606580300007,18.330651692000064],[98.19458564100006,18.330598001000055],[98.19363127100007,18.334247429000072],[98.18159555100004,18.34247686500004],[98.16959013300004,18.346418429000042],[98.16943301900005,18.349218261000033],[98.16582496300003,18.35127549400005],[98.16533443500003,18.353278554000042],[98.16332773900008,18.355169899000032],[98.16105375200004,18.354952037000032],[98.15659253500007,18.359252284000032],[98.15300885500005,18.35854275500003],[98.14836980200005,18.362195824000022],[98.14481583900005,18.362835120000057],[98.14532251200006,18.36517810900006],[98.13951240500006,18.372109686000044],[98.13552669000006,18.385207267000048],[98.12870071200007,18.387742769000056],[98.12795807600008,18.392061528000053],[98.12273074300003,18.395054865000077],[98.12679356200005,18.401542110000033],[98.12591873300005,18.405767609000065],[98.11869372400008,18.408449993000033],[98.11332480700008,18.408226200000062],[98.10393494000004,18.41281043400005],[98.10050014800004,18.41836009800005],[98.09457748400007,18.420495281000054],[98.08184369100007,18.416922026000062],[98.07382456900008,18.42879767000005],[98.08114835500004,18.43798918300007],[98.08271871500006,18.446631930000027],[98.09819435100007,18.45644271800006],[98.10537471300006,18.458429923000036],[98.11240566600009,18.483975387000044],[98.11937513300006,18.490016624000074],[98.11890133600008,18.49590450400007],[98.12127158700008,18.50156498600006],[98.12438008500004,18.50301181300006],[98.12944344100003,18.501845633000077],[98.13138020300005,18.505381359000072],[98.14192519800008,18.509819375000067],[98.14696603400006,18.514354081000025],[98.15404556300007,18.512112976000022],[98.16399134700004,18.525238829000045],[98.17513019100005,18.523090540000055],[98.17088005900007,18.52566342500006],[98.16997738000003,18.528545784000073],[98.17487818700005,18.541551731000027],[98.17372750200008,18.546250664000066],[98.17503680300007,18.547243723000065],[98.18081012300007,18.54661816100003],[98.18471798200005,18.54861878300005],[98.18832778700005,18.54346832000004],[98.19347046900003,18.540655985000058],[98.20045344700009,18.541850370000073],[98.20708496700007,18.537098638000035],[98.20909638900008,18.537196314000028],[98.22042427400004,18.549577289000073],[98.22341206000004,18.549620102000056],[98.22455090700004,18.55453213100003],[98.23151818400004,18.557035761000062],[98.23105881100008,18.564197222000075],[98.23571358600003,18.56654328300004],[98.23722902600008,18.570778957000073],[98.22717052400009,18.586832595000036],[98.21227296700005,18.59096203300004],[98.21469596400004,18.60059134500006],[98.21064527000004,18.607591959000043],[98.18242291200006,18.609805448000028],[98.1828836590001,18.624785710000026],[98.17362480000008,18.62843589100003],[98.16759632900005,18.625829166000067],[98.16312292000003,18.626194538000053],[98.15659022600005,18.629173656000034],[98.15413882500008,18.63337289100002],[98.14574276600007,18.63797783700005],[98.12466508000006,18.633987003000065],[98.11919161200007,18.63423143800003],[98.10578732200008,18.64841642300007],[98.10861580000005,18.66345188300005],[98.11245938100006,18.669592760000057],[98.10972444200007,18.67482475000003],[98.10513311700004,18.677073503000027],[98.10710729100003,18.688989330000027],[98.1041261380001,18.698060813000037],[98.10026886100007,18.70326579500005],[98.10080966300006,18.706475431000058],[98.10485133800006,18.708822957000056],[98.10755621800007,18.713535152000077],[98.10316966600006,18.718393114000037],[98.10396296800009,18.727362834000072],[98.10148978800004,18.733079365000037],[98.10214155200003,18.735782318000076],[98.10024121000004,18.737293683000075],[98.09396792000008,18.73764976200005],[98.10764468200006,18.74609056900005],[98.10748246600008,18.751404724000054],[98.11468788500008,18.75351297000004],[98.12020571400006,18.75832075300008],[98.11836625400008,18.76270072500006],[98.11992370400009,18.765423705000046],[98.11775835800006,18.766832322000027],[98.12164835500005,18.774455341000074],[98.11886379800006,18.77684044700004],[98.10721860300004,18.78019779000005],[98.09804541700004,18.77515738700004],[98.09208537700005,18.77793452200007],[98.08968692400003,18.783037800000045],[98.09115552200007,18.786681217000027],[98.08534408900005,18.796930167000024],[98.08832764000005,18.804710920000048],[98.08167136900005,18.812009526000047],[98.07945291200008,18.817124807000027],[98.08126236800007,18.82010123900005],[98.07832377100004,18.821449060000074],[98.08131713100005,18.826997832000075],[98.08115802700007,18.835861160000036],[98.08356207300005,18.84381420800003],[98.08811283000007,18.852234116000034],[98.08887115400006,18.861216022000058],[98.10210286900008,18.88386138100003],[98.11045240700008,18.888057373000038],[98.11239556900006,18.894051379000075],[98.11955011400005,18.898254830000038],[98.12436474900005,18.907895161000056],[98.13056568300004,18.91231286200002],[98.13669020800006,18.911677212000033],[98.14011412200006,18.913081401000053],[98.14368165200005,18.911758150000026],[98.14977540400008,18.91896151900005],[98.15498089800008,18.91878194900005],[98.15708705600008,18.920642979000036],[98.15869626700004,18.929132636000073],[98.15659926100005,18.937368244000027],[98.16605962700004,18.939459020000072],[98.17259659300004,18.951371959000035],[98.17311239300005,18.961861699000053],[98.16350695700005,18.981322630000026],[98.16698506200004,18.984695542000054],[98.16923581500004,18.99003294600004],[98.17042438900006,18.99514641900004],[98.16929717300009,18.999207992000038],[98.17916995300004,19.006635258000077],[98.18605264500007,19.015436055000063],[98.18625998600004,19.024446820000033],[98.18351170700005,19.02745981900006],[98.18495290900006,19.031688697000053],[98.19131920300003,19.03296151400008],[98.19113235200007,19.04107136400006],[98.20500180900007,19.048535130000058],[98.20861869300006,19.062750006000048],[98.21269232400005,19.063264468000057],[98.21684858300006,19.071361210000077],[98.22486176700005,19.079935006000035],[98.22571379700008,19.08866152100006],[98.23194249200009,19.088884140000065],[98.23323104800005,19.092572074000035],[98.23712707200008,19.094879121000076],[98.23811918800004,19.102293547000045],[98.24323220100007,19.10567638400005],[98.24693201500008,19.105616996000034],[98.25094726300006,19.10933402000006],[98.25182345400003,19.115326844000034],[98.24814303900007,19.118275976000064],[98.24670781900005,19.123174922000036],[98.24073462600006,19.12669963600007],[98.24447430700008,19.131502360000066],[98.24043858200008,19.140308056000045],[98.24277062600004,19.146026762000073],[98.24273767900007,19.152793032000034],[98.24671080700006,19.154487972000023],[98.25201126300004,19.16064796800004],[98.26073800800003,19.15756554500007],[98.26484078900006,19.15253712200007],[98.27046095500003,19.15594612600006],[98.27382233200007,19.153962269000033],[98.28509183100005,19.15265994700007],[98.29302508800004,19.155709],[98.29658836600004,19.15440553100007],[98.30282669200005,19.155296860000075],[98.30552518800005,19.152699896000065],[98.32410514600008,19.15574010500006],[98.33053075800007,19.150262315000077],[98.34294257300007,19.153009196000024],[98.33948346000005,19.142416627000042],[98.34149652000008,19.138779640000052],[98.34959765100007,19.131779859000062],[98.34472313800008,19.129080795000053],[98.34324048600007,19.122760826000047],[98.34523633200007,19.120090692000076],[98.34557610100006,19.112044340000075],[98.35297034300004,19.103236668000026],[98.35109013700009,19.096524489000046],[98.35634417800009,19.090051978000073],[98.36563974700005,19.088333259000017],[98.37121659000007,19.085207429000032],[98.37488953600007,19.075093738000078],[98.37173974700005,19.068250907000046],[98.37235491100006,19.065873955000026],[98.38168190200008,19.059360241000032],[98.38347199400005,19.062000584000028],[98.38562552700006,19.06170050100007],[98.38687471900005,19.058071687000055],[98.40082864900006,19.040989644000035],[98.40092298600007,19.035883889000043],[98.41439153800007,19.032822766000038],[98.42095119000004,19.028159857000045],[98.42345592100008,19.030585170000055],[98.42840261300006,19.041779697000035],[98.43823090900008,19.047993640000065],[98.44295332100006,19.046207262000056],[98.45621486700009,19.046660254000074],[98.46892901300004,19.041649899000053],[98.47875272900006,19.043169054000035],[98.48146958400008,19.040847320000076],[98.48596672800007,19.04093219100002],[98.50883124200004,19.033463997000066],[98.51328601000007,19.033459971000074],[98.52853383100006,19.02465412400005],[98.54264465800009,19.02570177700005],[98.55313963500004,19.031653765000048],[98.55535331300008,19.037856541000046],[98.56386489900007,19.037729976000033],[98.56567312000004,19.039919043000054],[98.56581280400007,19.044334170000074],[98.56881703100005,19.04608769900005],[98.58204729200008,19.048097326000057],[98.59277397800008,19.043017381000023],[98.59646674000005,19.044586713000065],[98.60313489200007,19.053243260000045],[98.63256445400003,19.06233039500006],[98.64027536700007,19.068940705000045],[98.64081384800005,19.075299631000064],[98.64561965000007,19.07588055100007],[98.64857489500008,19.080689635000056],[98.64917334200004,19.08836134300003],[98.65169338700008,19.094310528000047],[98.64909312400006,19.099644483000077],[98.64349701900005,19.10542223500005],[98.64361410800007,19.110677745000036],[98.64108751500004,19.11357386100007],[98.64232993600007,19.115966685000046],[98.64057649900008,19.118516349000057],[98.64143917000007,19.128097723000057],[98.63950505900006,19.129901431000064],[98.63896935800005,19.135352212000047],[98.63481177700004,19.138129790000047],[98.63221103100005,19.142313451000064],[98.63342070200008,19.155804206000028],[98.62179637800006,19.15784795200005],[98.61922016900007,19.16103057100003],[98.62073582500007,19.16871548500006],[98.61626557300008,19.16855934100005],[98.60774351700007,19.17254037200007],[98.60694454100008,19.17432128500008],[98.60842726000004,19.178013957000076],[98.60515005600007,19.180758813000075],[98.58238856400004,19.188638698000034],[98.57680284000008,19.201752605000024],[98.56938997800006,19.205836024000064],[98.5682504250001,19.208951212000045],[98.56901460200004,19.216758974000076],[98.57331627400004,19.217514617000067],[98.57729535900006,19.214921097000055],[98.58207950800005,19.216744048000063],[98.58922990300005,19.22086089400005],[98.59832245500007,19.22910726300006],[98.59704454000007,19.237660520000077],[98.59213220400007,19.242403256000046],[98.59163104300006,19.24751046300003],[98.58730425300007,19.255263775000056],[98.58953859400003,19.25803194700006],[98.58892784600005,19.26159351800004],[98.59134164500006,19.267111658000033],[98.59685873700005,19.271000892000078],[98.59864423400006,19.27651529000007],[98.60392263800009,19.279933853000045],[98.59810698000007,19.282306991000038],[98.59745091800005,19.285337544000072],[98.59385156500008,19.289319521000035],[98.59962116900005,19.298430502000027],[98.59822947600009,19.303411479000037],[98.60196185200004,19.30895947900007],[98.60061391800008,19.312447163000055],[98.60147376400005,19.314588605000033],[98.59387827000006,19.321885223000034],[98.59320513400007,19.325823946000067],[98.59017160200005,19.327739819000044],[98.58874411600004,19.332537616000025],[98.59356670400007,19.340207453000065],[98.59006051200004,19.34698200800005],[98.58992100400008,19.352923639000036],[98.59482940100008,19.353454260000035],[98.59498835000007,19.355478941000058],[98.58768053000006,19.362868504000062],[98.58131524000004,19.365639683000033],[98.57785526200007,19.37265807600005],[98.57762808600006,19.37674911500005],[98.57551205900006,19.37889954900004],[98.57606220800005,19.382384647000038],[98.57331941700005,19.38633649800005],[98.57374271400005,19.39098257300003],[98.57737283500006,19.397827629000055],[98.57985749600005,19.399288364000032],[98.58704139200006,19.39757873300005],[98.59391148700007,19.402693409000054],[98.59611584100008,19.406993216000043],[98.59212691500005,19.40853643300006],[98.59108345700008,19.411484708000046],[98.58677405700007,19.414107018000042],[98.58583023100005,19.416447740000024],[98.58671565700007,19.42072656700003],[98.58984573600009,19.42386953800007],[98.58810919400008,19.427390078000034],[98.58845394300005,19.43091984700004],[98.58553883200005,19.432998524000027],[98.58453658300004,19.444211257000067],[98.58912634800004,19.44833809900007],[98.59223455400007,19.455814258000032],[98.59088149900003,19.457668329000057],[98.59098724500006,19.462991402000057],[98.59476918600006,19.461895112000033],[98.59889169400009,19.46999697700005],[98.59648095900009,19.479790058000045],[98.59257804000003,19.48313858700004],[98.59495270000008,19.48977032800008],[98.59158121600008,19.495672978000073],[98.58806836600007,19.498380647000033],[98.58760054900006,19.514700442000045],[98.57488734900005,19.525345963000063],[98.56808369300006,19.520332386000064],[98.56400614300009,19.53045983400005],[98.56552654800004,19.537880591000036],[98.56268822600003,19.54269496500007],[98.56414401700005,19.55577721900005],[98.56609135400004,19.55982368400004],[98.55674765500004,19.563036211000057],[98.54230958000005,19.571858621000047],[98.54431745800008,19.57586027700006],[98.54143997300008,19.582257893000076],[98.54111507800008,19.592818940000033],[98.53674545100007,19.600247379000052],[98.53863949800007,19.609438223000037],[98.53624642600005,19.61528570900003],[98.53953525700007,19.623377621000035],[98.5354118690001,19.626109714000048],[98.52678096100004,19.62703836300005],[98.52301936400005,19.631092753000075],[98.52177511600007,19.638813682000038],[98.51354454700004,19.638985910000027],[98.50431380400005,19.64445735500004],[98.50159301400004,19.649189637000063],[98.4969543000001,19.65215660400003],[98.47235137300004,19.657887697000042],[98.46872796100007,19.66289016200005],[98.47055120000005,19.66587540800003],[98.47177918900007,19.67595272700003],[98.46941108400006,19.679508480000038],[98.47047515400004,19.684307863000072],[98.46726912400004,19.694073849000063],[98.47310744600009,19.69452032400005],[98.48604009900004,19.704649583000048],[98.49779678600004,19.705609138000057],[98.50331418200005,19.709245969000055],[98.50695884600003,19.70967397200008],[98.50944749300004,19.71712480700006],[98.51833877300004,19.715834061000066],[98.52641706000009,19.706021322000026],[98.52988682200004,19.704871482000037],[98.53376698200003,19.696463849000054],[98.53907335200007,19.692756656000032],[98.53908159200006,19.688626864000064],[98.54990142000008,19.686232448000055],[98.55757552900008,19.681005647000067],[98.55961020500007,19.67527000500007],[98.56266862700005,19.674972483000033],[98.56743743400006,19.67166299100006],[98.56792755200007,19.680337271000038],[98.57151204800005,19.68842026400005],[98.57070396000006,19.693040668000037],[98.57320448200005,19.698278948000056],[98.57271347200003,19.703977750000035],[98.57772375300004,19.704579263000028],[98.59101089900008,19.71488264600004],[98.60106973100005,19.712910422000043],[98.60886685500009,19.70858539400006],[98.61531555900007,19.710709440000073],[98.61717529500004,19.717023391000055],[98.62420690000005,19.713003312000072],[98.62824331000007,19.715343230000034],[98.62657943700005,19.727878387000036],[98.63317330900009,19.727733857000032],[98.63681011400008,19.730942562000052],[98.64400263900006,19.732694325000068],[98.65418578900005,19.739297605000047],[98.65638727400005,19.73883418400004],[98.66096320800006,19.73380033800004],[98.66109304800005,19.736437085000034],[98.66581628100005,19.74034761700005],[98.66433914500004,19.74657350100006],[98.66672705600007,19.749013389000023],[98.67320404400006,19.751320683000074],[98.68006405400007,19.749067080000035],[98.68503274300008,19.75387219600004],[98.69215495200007,19.75516103700005],[98.69512879100006,19.754230811000067],[98.69959191700008,19.757114334000054],[98.70429515300005,19.757664375000047],[98.71165781300004,19.767917403000066],[98.71784945300004,19.76214142300006],[98.72279182600005,19.760454733000074],[98.72877526100007,19.76115747900008],[98.73402772800006,19.755862974000024],[98.73968179300005,19.753406474000034],[98.74667817000005,19.755705099000068],[98.75191885800007,19.759659297000038],[98.77818792500005,19.751822632000028],[98.78673287200007,19.76018537100003],[98.78876197600005,19.764624894000065],[98.79498087100006,19.76958208600007],[98.79680463200003,19.77507859700006],[98.80308339200009,19.77506302600006],[98.81342099600005,19.780514316000048],[98.82868557600005,19.793432007000035],[98.83078085400007,19.805633789000076],[98.83384735800007,19.811015864000066],[98.83847933000004,19.81298111300003],[98.84984632800007,19.806848215000052],[98.85317532500005,19.797115999000027],[98.86858254800006,19.792241290000046],[98.87474063600007,19.782589778000048],[98.88533985600009,19.779282599000055],[98.89235923300004,19.77350785100003],[98.89658795400004,19.766470579000043],[98.90891082400003,19.760885670000054],[98.91374087100007,19.755782190000048],[98.91427056200007,19.749199028000074],[98.91692471200008,19.743208777000063],[98.92595267300004,19.75124884900003],[98.92919083100008,19.757865206000076],[98.92760932100003,19.77104268900007],[98.93398684100003,19.773528053000064],[98.94135752300008,19.76909348600003],[98.96539211100009,19.741259156000073],[98.97126133000006,19.737424001000022],[98.9809560830001,19.73413131700005],[98.98775244200004,19.750488820000044],[98.98949034300006,19.775559677000047],[98.99177191800004,19.781250803000038],[98.99384316400005,19.78331808300004],[99.00365064200008,19.781461064000037],[99.00618167700009,19.788559498000044],[99.01676354600005,19.795374913000046],[99.02510793700009,19.825053366000077],[99.03112435200006,19.833131387000037],[99.02899526600004,19.839215819000064],[99.03384842200006,19.850054680000024],[99.03220178700008,19.854372342000033],[99.02453049900004,19.863875808000042],[99.02743570200005,19.89179918500003],[99.02259779300006,19.903854968000076],[99.02695733400009,19.91408175600003],[99.02406040800008,19.91741674700006],[99.02263238100005,19.926634454000066],[99.02424099600006,19.928796291000022],[99.03069562500009,19.92674394500005],[99.03437453200007,19.929949068000035],[99.04347817600006,19.93174765100002],[99.04073979100008,19.94070599700007],[99.04378259300006,19.945219135000055],[99.04340082300007,19.950286590000076],[99.03759230000009,19.96627391800007],[99.03060722900005,19.971636303000025],[99.03537744200008,19.97898001800008],[99.03596966800006,19.987745518000054],[99.03788936800005,19.992028520000073],[99.05448710300004,20.002816280000047],[99.04636257200008,20.008667594000034],[99.04650712300008,20.012571407000053],[99.04361962000007,20.01717633400005],[99.04347466700005,20.020266915000033],[99.04562930800006,20.02382682500007],[99.04442647900004,20.03797629900004],[99.04831952000008,20.046076644000046],[99.05361796800008,20.05017775800007],[99.05686891000005,20.06314206600007],[99.06691765200009,20.067620718000057],[99.06980967800007,20.082150489000067],[99.06744376900008,20.087433309000062],[99.06928626000007,20.092242330000033],[99.07609898800007,20.10051253300002],[99.08110614600008,20.101739279000068],[99.08290865900005,20.098776698000055],[99.09059481400004,20.097358693000047],[99.09380586700007,20.104859646000023],[99.09534725900005,20.10543942100003],[99.10012719900004,20.09769241500004],[99.10450563200004,20.09776217000007],[99.10848969400007,20.09813478500007],[99.11184613500006,20.100769115000052],[99.11879781800008,20.10076457300005],[99.12532297200005,20.104202998000062],[99.13091485800004,20.10411309100005],[99.13168597600009,20.106084750000033],[99.12835656400006,20.109281634000066],[99.12823723100009,20.11325329500005],[99.12622013700008,20.11544837700006],[99.12680699600008,20.11841421000003],[99.14458109300006,20.122591238000044],[99.15035406900006,20.128622827000076],[99.15987191200009,20.132972326000072],[99.16492451100004,20.130030795000042],[99.17118597300004,20.132277183000042],[99.17309698100007,20.129424288000052],[99.18123664900008,20.126874581000045],[99.19099283000008,20.12671517900003],[99.20000895800007,20.130981719000033],[99.21232420700005,20.130669110000042],[99.22114727200005,20.124226517000064],[99.22196464900009,20.119971544000062],[99.22606393700005,20.119650058000044],[99.23148706000006,20.12523889000004],[99.23568825600006,20.122816055000047],[99.24255357700008,20.113697931000047],[99.24932725200006,20.111768226000038],[99.25301338200006,20.114031144000023],[99.25829804700004,20.113128870000022],[99.26275211600006,20.105393808000024],[99.26871200900007,20.103076001000037],[99.27728368100009,20.095946480000062],[99.28222561100006,20.094366293000068],[99.29446075400006,20.082108598000044],[99.30613073400008,20.07868424700007],[99.31574645300003,20.070267873000034],[99.32285094700006,20.06954115100007],[99.33211652200004,20.073795992000043],[99.33896236300006,20.072002799000078],[99.34201055400007,20.074054990000032],[99.34798755300007,20.074608100000034],[99.35426999500004,20.07992714500005],[99.36762247100006,20.08321398900006],[99.38129675500005,20.089320755000074],[99.38558752700004,20.087474778000058],[99.39619106700007,20.08757781600007],[99.39984913900008,20.08620280800005],[99.40444727600004,20.088010921000034],[99.41345515100005,20.087829662000047],[99.41530314100005,20.091751655000053],[99.42055902100009,20.092812288000058],[99.42767996400005,20.088943408000034],[99.43463146800008,20.090959627000075],[99.43893422400004,20.090198961000056],[99.44140235800006,20.092248590000054],[99.44329782900007,20.09811975900004],[99.45394720900003,20.09812206000004],[99.46194822500007,20.10406530900007],[99.46503667800005,20.104228888000023],[99.46957006300005,20.107361537000035],[99.48466201200006,20.10903311400006],[99.49225121100005,20.11486086900004],[99.49868626100005,20.115746425000054],[99.49919053600007,20.12241832100006],[99.49512957900004,20.13140735100006],[99.50859851500007,20.142976117000046],[99.51012209100008,20.14698156200006],[99.51273101700008,20.147086941000058]]]}}]}